GLOBALSTAR M067         
1 32263U 07048A   25184.86878926 -.00000075  00000+0  16922-3 0  9994
2 32263  51.9747 347.1204 0001429  55.4318  96.4414 12.40674406811556
GLOBALSTAR M070         
1 32264U 07048B   25184.75751269 -.00000096  00000+0  43756-4 0  9992
2 32264  51.9757  78.0230 0000694  72.6066 323.1521 12.62319624815769
GLOBALSTAR M066         
1 32265U 07048C   25184.17668958 -.00000086  00000+0  68515-4 0  9990
2 32265  51.9610 339.7402 0003558  21.1292 149.8298 12.29989873818217
GLOBALSTAR M068         
1 32266U 07048D   25185.15962244 -.00000065  00000+0  21310-3 0  9993
2 32266  51.9879 250.5212 0001391 165.1398 217.9055 12.62825726819990
GLOBALSTAR M079         
1 37188U 10054A   25184.88802019 -.00000100  00000+0  23327-4 0  9995
2 37188  52.0041  88.9454 0000724  30.2419  46.3445 12.62265322678560
GLOBALSTAR M074         
1 37189U 10054B   25184.91537396 -.00000101  00000+0  18081-4 0  9995
2 37189  52.0025  88.1845 0000812  51.2431  27.9723 12.62257040679174
GLOBALSTAR M076         
1 37190U 10054C   25184.77338222 -.00000111  00000+0 -38439-4 0  9999
2 37190  52.0032  88.7871 0000885  43.3352 351.3810 12.62263310678877
GLOBALSTAR M077         
1 37191U 10054D   25185.10712734 -.00000098  00000+0  33283-4 0  9997
2 37191  52.0084  44.6328 0000851  70.9317 101.3723 12.62268793680029
